{
  "type": "FeatureCollection",
  "features": [
    {
      "type": "Feature",
      "properties": {
        "norad_id": 35993,
        "name": "COSMOS 2251 DEB",
        "group": "cosmos-2251-debris",
        "lat": 34.829321432330275,
        "lon": -26.554951802021783,
        "alt_km": 681.2910830498777,
        "timestamp": "2025-12-18T08:58:43.811747+00:00",
        "meta_object_name": "COSMOS 2251 DEB",
        "meta_object_id": "1993-036AWK",
        "meta_epoch": "2025-12-17T04:57:26.962848",
        "meta_mean_motion": 14.65334596,
        "meta_eccentricity": 0.00286802,
        "meta_inclination": 74.0146,
        "meta_ra_of_asc_node": 324.1891,
        "meta_arg_of_pericenter": 152.382,
        "meta_mean_anomaly": 207.888,
        "meta_ephemeris_type": 0,
        "meta_classification_type": "U",
        "meta_norad_cat_id": 35993,
        "meta_element_set_no": 999,
        "meta_rev_at_epoch": 60508,
        "meta_bstar": 0.00055537326,
        "meta_mean_motion_dot": 2.986e-05,
        "meta_mean_motion_ddot": 0,
        "tle_line1": "1 35993U 93036AWK 25351.20656207  .00002986  00000+0  55537-3 0  9996",
        "tle_line2": "2 35993  74.0146 324.1891 0028680 152.3820 207.8880 14.65334596605084"
      },
      "geometry": {
        "type": "Point",
        "coordinates": [
          -26.554951802021783,
          34.829321432330275
        ]
      }
    },
    {
      "type": "Feature",
      "properties": {
        "norad_id": 35996,
        "name": "COSMOS 2251 DEB",
        "group": "cosmos-2251-debris",
        "lat": -62.592298544638304,
        "lon": 58.229692102562225,
        "alt_km": 566.7865721248454,
        "timestamp": "2025-12-18T08:58:43.811756+00:00",
        "meta_object_name": "COSMOS 2251 DEB",
        "meta_object_id": "1993-036AWN",
        "meta_epoch": "2025-12-15T22:25:06.327264",
        "meta_mean_motion": 15.09228347,
        "meta_eccentricity": 0.00876626,
        "meta_inclination": 74.0159,
        "meta_ra_of_asc_node": 96.8248,
        "meta_arg_of_pericenter": 187.0066,
        "meta_mean_anomaly": 172.9909,
        "meta_ephemeris_type": 0,
        "meta_classification_type": "U",
        "meta_norad_cat_id": 35996,
        "meta_element_set_no": 999,
        "meta_rev_at_epoch": 72374,
        "meta_bstar": 0.00054952121,
        "meta_mean_motion_dot": 9.536e-05,
        "meta_mean_motion_ddot": 0,
        "tle_line1": "1 35996U 93036AWN 25349.93410101  .00009536  00000+0  54952-3 0  9995",
        "tle_line2": "2 35996  74.0159  96.8248 0087662 187.0066 172.9909 15.09228347723745"
      },
      "geometry": {
        "type": "Point",
        "coordinates": [
          58.229692102562225,
          -62.592298544638304
        ]
      }
    },
    {
      "type": "Feature",
      "properties": {
        "norad_id": 35997,
        "name": "COSMOS 2251 DEB",
        "group": "cosmos-2251-debris",
        "lat": -64.87619875337268,
        "lon": 139.095807351863,
        "alt_km": 719.419265449179,
        "timestamp": "2025-12-18T08:58:43.811766+00:00",
        "meta_object_name": "COSMOS 2251 DEB",
        "meta_object_id": "1993-036AWP",
        "meta_epoch": "2025-12-16T19:15:09.678240",
        "meta_mean_motion": 14.5133295,
        "meta_eccentricity": 0.00156142,
        "meta_inclination": 74.0426,
        "meta_ra_of_asc_node": 179.6525,
        "meta_arg_of_pericenter": 254.9134,
        "meta_mean_anomaly": 105.03,
        "meta_ephemeris_type": 0,
        "meta_classification_type": "U",
        "meta_norad_cat_id": 35997,
        "meta_element_set_no": 999,
        "meta_rev_at_epoch": 70943,
        "meta_bstar": 0.00047908255,
        "meta_mean_motion_dot": 1.884e-05,
        "meta_mean_motion_ddot": 0,
        "tle_line1": "1 35997U 93036AWP 25350.80219535  .00001884  00000+0  47908-3 0  9993",
        "tle_line2": "2 35997  74.0426 179.6525 0015614 254.9134 105.0300 14.51332950709433"
      },
      "geometry": {
        "type": "Point",
        "coordinates": [
          139.095807351863,
          -64.87619875337268
        ]
      }
    },
    {
      "type": "Feature",
      "properties": {
        "norad_id": 36005,
        "name": "COSMOS 2251 DEB",
        "group": "cosmos-2251-debris",
        "lat": -57.28177376150743,
        "lon": -70.05843721061967,
        "alt_km": 700.0253196318117,
        "timestamp": "2025-12-18T08:58:43.811776+00:00",
        "meta_object_name": "COSMOS 2251 DEB",
        "meta_object_id": "1993-036AWX",
        "meta_epoch": "2025-12-17T00:20:58.202592",
        "meta_mean_motion": 14.47364768,
        "meta_eccentricity": 0.00618064,
        "meta_inclination": 74.0273,
        "meta_ra_of_asc_node": 86.0079,
        "meta_arg_of_pericenter": 222.4789,
        "meta_mean_anomaly": 137.1579,
        "meta_ephemeris_type": 0,
        "meta_classification_type": "U",
        "meta_norad_cat_id": 36005,
        "meta_element_set_no": 999,
        "meta_rev_at_epoch": 87646,
        "meta_bstar": 0.00017419638,
        "meta_mean_motion_dot": 6.25e-06,
        "meta_mean_motion_ddot": 0,
        "tle_line1": "1 36005U 93036AWX 25351.01456253  .00000625  00000+0  17420-3 0  9996",
        "tle_line2": "2 36005  74.0273  86.0079 0061806 222.4789 137.1579 14.47364768876468"
      },
      "geometry": {
        "type": "Point",
        "coordinates": [
          -70.05843721061967,
          -57.28177376150743
        ]
      }
    },
    {
      "type": "Feature",
      "properties": {
        "norad_id": 36045,
        "name": "COSMOS 2251 DEB",
        "group": "cosmos-2251-debris",
        "lat": 32.24337530040461,
        "lon": 58.575689105960734,
        "alt_km": 628.4937566130538,
        "timestamp": "2025-12-18T08:58:43.811787+00:00",
        "meta_object_name": "COSMOS 2251 DEB",
        "meta_object_id": "1993-036AXG",
        "meta_epoch": "2025-12-17T21:23:36.435552",
        "meta_mean_motion": 14.69971183,
        "meta_eccentricity": 0.0048002,
        "meta_inclination": 73.7643,
        "meta_ra_of_asc_node": 48.9349,
        "meta_arg_of_pericenter": 60.9199,
        "meta_mean_anomaly": 299.6765,
        "meta_ephemeris_type": 0,
        "meta_classification_type": "U",
        "meta_norad_cat_id": 36045,
        "meta_element_set_no": 999,
        "meta_rev_at_epoch": 8464,
        "meta_bstar": 0.0014164853,
        "meta_mean_motion_dot": 8.618e-05,
        "meta_mean_motion_ddot": 0,
        "tle_line1": "1 36045U 93036AXG 25351.89139393  .00008618  00000+0  14165-2 0  9991",
        "tle_line2": "2 36045  73.7643  48.9349 0048002  60.9199 299.6765 14.69971183 84640"
      },
      "geometry": {
        "type": "Point",
        "coordinates": [
          58.575689105960734,
          32.24337530040461
        ]
      }
    },
    {
      "type": "Feature",
      "properties": {
        "norad_id": 36046,
        "name": "COSMOS 2251 DEB",
        "group": "cosmos-2251-debris",
        "lat": 0.06721797420295565,
        "lon": -94.33750107884322,
        "alt_km": 653.3100630406852,
        "timestamp": "2025-12-18T08:58:43.811797+00:00",
        "meta_object_name": "COSMOS 2251 DEB",
        "meta_object_id": "1993-036AXH",
        "meta_epoch": "2025-12-16T01:21:09.149760",
        "meta_mean_motion": 14.65292015,
        "meta_eccentricity": 0.00556784,
        "meta_inclination": 74.0168,
        "meta_ra_of_asc_node": 270.107,
        "meta_arg_of_pericenter": 55.1264,
        "meta_mean_anomaly": 324.2312,
        "meta_ephemeris_type": 0,
        "meta_classification_type": "U",
        "meta_norad_cat_id": 36046,
        "meta_element_set_no": 999,
        "meta_rev_at_epoch": 64052,
        "meta_bstar": 0.00042488876,
        "meta_mean_motion_dot": 2.313e-05,
        "meta_mean_motion_ddot": 0,
        "tle_line1": "1 36046U 93036AXH 25350.05635590  .00002313  00000+0  42489-3 0  9996",
        "tle_line2": "2 36046  74.0168 270.1070 0055678  55.1264 324.2312 14.65292015640527"
      },
      "geometry": {
        "type": "Point",
        "coordinates": [
          -94.33750107884322,
          0.06721797420295565
        ]
      }
    },
    {
      "type": "Feature",
      "properties": {
        "norad_id": 36047,
        "name": "COSMOS 2251 DEB",
        "group": "cosmos-2251-debris",
        "lat": -16.069185046376298,
        "lon": 147.50456534140446,
        "alt_km": 588.3352052924811,
        "timestamp": "2025-12-18T08:58:43.811807+00:00",
        "meta_object_name": "COSMOS 2251 DEB",
        "meta_object_id": "1993-036AXJ",
        "meta_epoch": "2025-12-17T16:03:19.014912",
        "meta_mean_motion": 14.96190493,
        "meta_eccentricity": 0.00083861,
        "meta_inclination": 74.0351,
        "meta_ra_of_asc_node": 324.1985,
        "meta_arg_of_pericenter": 352.071,
        "meta_mean_anomaly": 8.0341,
        "meta_ephemeris_type": 0,
        "meta_classification_type": "U",
        "meta_norad_cat_id": 36047,
        "meta_element_set_no": 999,
        "meta_rev_at_epoch": 66013,
        "meta_bstar": 0.0018797305,
        "meta_mean_motion_dot": 0.00021233,
        "meta_mean_motion_ddot": 0,
        "tle_line1": "1 36047U 93036AXJ 25351.66897008  .00021233  00000+0  18797-2 0  9995",
        "tle_line2": "2 36047  74.0351 324.1985 0008386 352.0710   8.0341 14.96190493660135"
      },
      "geometry": {
        "type": "Point",
        "coordinates": [
          147.50456534140446,
          -16.069185046376298
        ]
      }
    }
  ]
}